[{"OBJECT_NAME":"ONEWEB-0373","OBJECT_ID":"2021-090W","EPOCH":"2026-06-06T13:57:31.960224","MEAN_MOTION":13.20771541,"ECCENTRICITY":0.0002056,"INCLINATION":87.9199,"RA_OF_ASC_NODE":276.5559,"ARG_OF_PERICENTER":101.1316,"MEAN_ANOMALY":259.0049,"EPHEMERIS_TYPE":0,"CLASSIFICATION_TYPE":"U","NORAD_CAT_ID":49299,"ELEMENT_SET_NO":999,"REV_AT_EPOCH":22962,"BSTAR":0.00036369,"MEAN_MOTION_DOT":1.61e-06,"MEAN_MOTION_DDOT":0.0},{"OBJECT_NAME":"ONEWEB-0374","OBJECT_ID":"2021-090X","EPOCH":"2026-06-06T14:44:50.981280","MEAN_MOTION":13.14502585,"ECCENTRICITY":0.0002323,"INCLINATION":87.8959,"RA_OF_ASC_NODE":291.8046,"ARG_OF_PERICENTER":88.7764,"MEAN_ANOMALY":271.3631,"EPHEMERIS_TYPE":0,"CLASSIFICATION_TYPE":"U","NORAD_CAT_ID":49300,"ELEMENT_SET_NO":999,"REV_AT_EPOCH":22617,"BSTAR":7.604100000000001e-05,"MEAN_MOTION_DOT":4.1e-07,"MEAN_MOTION_DDOT":0.0},{"OBJECT_NAME":"ONEWEB-0375","OBJECT_ID":"2021-090Y","EPOCH":"2026-06-06T13:40:34.339296","MEAN_MOTION":13.20771388,"ECCENTRICITY":0.0002419,"INCLINATION":87.919,"RA_OF_ASC_NODE":276.5497,"ARG_OF_PERICENTER":92.4257,"MEAN_ANOMALY":267.7153,"EPHEMERIS_TYPE":0,"CLASSIFICATION_TYPE":"U","NORAD_CAT_ID":49301,"ELEMENT_SET_NO":999,"REV_AT_EPOCH":22912,"BSTAR":8.693800000000001e-06,"MEAN_MOTION_DOT":1.7e-07,"MEAN_MOTION_DDOT":0.0},{"OBJECT_NAME":"ONEWEB-0376","OBJECT_ID":"2021-090Z","EPOCH":"2026-06-06T15:35:37.834080","MEAN_MOTION":13.19724745,"ECCENTRICITY":0.0001646,"INCLINATION":87.9173,"RA_OF_ASC_NODE":307.0654,"ARG_OF_PERICENTER":96.7039,"MEAN_ANOMALY":263.4281,"EPHEMERIS_TYPE":0,"CLASSIFICATION_TYPE":"U","NORAD_CAT_ID":49302,"ELEMENT_SET_NO":999,"REV_AT_EPOCH":22506,"BSTAR":0.00010647,"MEAN_MOTION_DOT":5.6e-07,"MEAN_MOTION_DDOT":0.0},{"OBJECT_NAME":"ONEWEB-0377","OBJECT_ID":"2021-090AA","EPOCH":"2026-06-06T13:21:22.970304","MEAN_MOTION":13.20772374,"ECCENTRICITY":0.0002145,"INCLINATION":87.9189,"RA_OF_ASC_NODE":276.5545,"ARG_OF_PERICENTER":100.8979,"MEAN_ANOMALY":259.2396,"EPHEMERIS_TYPE":0,"CLASSIFICATION_TYPE":"U","NORAD_CAT_ID":49303,"ELEMENT_SET_NO":999,"REV_AT_EPOCH":22911,"BSTAR":0.00022281000000000002,"MEAN_MOTION_DOT":1.04e-06,"MEAN_MOTION_DDOT":0.0},{"OBJECT_NAME":"ONEWEB-0378","OBJECT_ID":"2021-090AB","EPOCH":"2026-06-06T13:50:26.599200","MEAN_MOTION":13.20770504,"ECCENTRICITY":0.0002001,"INCLINATION":87.9211,"RA_OF_ASC_NODE":276.5559,"ARG_OF_PERICENTER":97.1211,"MEAN_ANOMALY":263.015,"EPHEMERIS_TYPE":0,"CLASSIFICATION_TYPE":"U","NORAD_CAT_ID":49304,"ELEMENT_SET_NO":999,"REV_AT_EPOCH":22838,"BSTAR":-3.3541e-06,"MEAN_MOTION_DOT":1.2e-07,"MEAN_MOTION_DDOT":0.0},{"OBJECT_NAME":"ONEWEB-0379","OBJECT_ID":"2021-090AC","EPOCH":"2026-06-06T14:37:59.388960","MEAN_MOTION":13.14502162,"ECCENTRICITY":0.0001915,"INCLINATION":87.8958,"RA_OF_ASC_NODE":291.8166,"ARG_OF_PERICENTER":95.6854,"MEAN_ANOMALY":264.4494,"EPHEMERIS_TYPE":0,"CLASSIFICATION_TYPE":"U","NORAD_CAT_ID":49305,"ELEMENT_SET_NO":999,"REV_AT_EPOCH":22617,"BSTAR":0.00024651,"MEAN_MOTION_DOT":1.04e-06,"MEAN_MOTION_DDOT":0.0},{"OBJECT_NAME":"ONEWEB-0380","OBJECT_ID":"2021-090AD","EPOCH":"2026-06-06T15:31:05.565216","MEAN_MOTION":13.19725471,"ECCENTRICITY":0.0002017,"INCLINATION":87.9161,"RA_OF_ASC_NODE":307.0722,"ARG_OF_PERICENTER":98.0493,"MEAN_ANOMALY":262.0868,"EPHEMERIS_TYPE":0,"CLASSIFICATION_TYPE":"U","NORAD_CAT_ID":49306,"ELEMENT_SET_NO":999,"REV_AT_EPOCH":22503,"BSTAR":6.811700000000001e-05,"MEAN_MOTION_DOT":4e-07,"MEAN_MOTION_DDOT":0.0},{"OBJECT_NAME":"ONEWEB-0381","OBJECT_ID":"2021-090AE","EPOCH":"2026-06-05T20:54:31.471776","MEAN_MOTION":13.20772907,"ECCENTRICITY":0.0002112,"INCLINATION":87.9188,"RA_OF_ASC_NODE":276.6957,"ARG_OF_PERICENTER":94.6552,"MEAN_ANOMALY":265.4823,"EPHEMERIS_TYPE":0,"CLASSIFICATION_TYPE":"U","NORAD_CAT_ID":49307,"ELEMENT_SET_NO":999,"REV_AT_EPOCH":22833,"BSTAR":0.00018295,"MEAN_MOTION_DOT":8.7e-07,"MEAN_MOTION_DDOT":0.0},{"OBJECT_NAME":"ONEWEB-0382","OBJECT_ID":"2021-090AF","EPOCH":"2026-06-06T14:45:59.535360","MEAN_MOTION":13.20771148,"ECCENTRICITY":0.000208,"INCLINATION":87.919,"RA_OF_ASC_NODE":276.5419,"ARG_OF_PERICENTER":92.4491,"MEAN_ANOMALY":267.6881,"EPHEMERIS_TYPE":0,"CLASSIFICATION_TYPE":"U","NORAD_CAT_ID":49308,"ELEMENT_SET_NO":999,"REV_AT_EPOCH":22842,"BSTAR":-0.00046535,"MEAN_MOTION_DOT":-1.76e-06,"MEAN_MOTION_DDOT":0.0},{"OBJECT_NAME":"ONEWEB-0383","OBJECT_ID":"2021-090AG","EPOCH":"2026-06-06T14:28:50.240064","MEAN_MOTION":13.14504736,"ECCENTRICITY":0.0001876,"INCLINATION":87.8966,"RA_OF_ASC_NODE":291.8089,"ARG_OF_PERICENTER":94.5905,"MEAN_ANOMALY":265.5439,"EPHEMERIS_TYPE":0,"CLASSIFICATION_TYPE":"U","NORAD_CAT_ID":49309,"ELEMENT_SET_NO":999,"REV_AT_EPOCH":22620,"BSTAR":0.0006634799999999999,"MEAN_MOTION_DOT":2.59e-06,"MEAN_MOTION_DDOT":0.0},{"OBJECT_NAME":"ONEWEB-0384","OBJECT_ID":"2021-090AH","EPOCH":"2026-06-06T19:57:23.269248","MEAN_MOTION":13.20811501,"ECCENTRICITY":0.0002143,"INCLINATION":87.9191,"RA_OF_ASC_NODE":276.5424,"ARG_OF_PERICENTER":87.9883,"MEAN_ANOMALY":272.1496,"EPHEMERIS_TYPE":0,"CLASSIFICATION_TYPE":"U","NORAD_CAT_ID":49310,"ELEMENT_SET_NO":999,"REV_AT_EPOCH":22846,"BSTAR":-6.2241e-05,"MEAN_MOTION_DOT":-1.2e-07,"MEAN_MOTION_DDOT":0.0},{"OBJECT_NAME":"ONEWEB-0385","OBJECT_ID":"2021-090AJ","EPOCH":"2026-06-06T14:36:20.104128","MEAN_MOTION":13.2077209,"ECCENTRICITY":0.000205,"INCLINATION":87.9189,"RA_OF_ASC_NODE":276.5485,"ARG_OF_PERICENTER":95.2785,"MEAN_ANOMALY":264.8582,"EPHEMERIS_TYPE":0,"CLASSIFICATION_TYPE":"U","NORAD_CAT_ID":49311,"ELEMENT_SET_NO":999,"REV_AT_EPOCH":22840,"BSTAR":8.8923e-05,"MEAN_MOTION_DOT":4.9e-07,"MEAN_MOTION_DDOT":0.0},{"OBJECT_NAME":"ONEWEB-0386","OBJECT_ID":"2021-090AK","EPOCH":"2026-06-06T09:33:18.140832","MEAN_MOTION":13.20771571,"ECCENTRICITY":0.0002008,"INCLINATION":87.9186,"RA_OF_ASC_NODE":276.5803,"ARG_OF_PERICENTER":94.0185,"MEAN_ANOMALY":266.1178,"EPHEMERIS_TYPE":0,"CLASSIFICATION_TYPE":"U","NORAD_CAT_ID":49312,"ELEMENT_SET_NO":999,"REV_AT_EPOCH":22839,"BSTAR":-0.00041431000000000004,"MEAN_MOTION_DOT":-1.55e-06,"MEAN_MOTION_DDOT":0.0},{"OBJECT_NAME":"ONEWEB-0387","OBJECT_ID":"2021-090AL","EPOCH":"2026-06-06T01:55:07.764672","MEAN_MOTION":13.20772586,"ECCENTRICITY":0.0002297,"INCLINATION":87.9178,"RA_OF_ASC_NODE":276.668,"ARG_OF_PERICENTER":100.315,"MEAN_ANOMALY":259.8242,"EPHEMERIS_TYPE":0,"CLASSIFICATION_TYPE":"U","NORAD_CAT_ID":49313,"ELEMENT_SET_NO":999,"REV_AT_EPOCH":22835,"BSTAR":-0.00030076,"MEAN_MOTION_DOT":-1.09e-06,"MEAN_MOTION_DDOT":0.0},{"OBJECT_NAME":"ONEWEB-0388","OBJECT_ID":"2021-090AM","EPOCH":"2026-06-06T15:24:16.272864","MEAN_MOTION":13.19724525,"ECCENTRICITY":0.0001857,"INCLINATION":87.916,"RA_OF_ASC_NODE":307.0711,"ARG_OF_PERICENTER":92.7147,"MEAN_ANOMALY":267.4198,"EPHEMERIS_TYPE":0,"CLASSIFICATION_TYPE":"U","NORAD_CAT_ID":49314,"ELEMENT_SET_NO":999,"REV_AT_EPOCH":22502,"BSTAR":-0.00021511,"MEAN_MOTION_DOT":-7.3e-07,"MEAN_MOTION_DDOT":0.0}]